[{"OBJECT_NAME":"IRIDE-MS2-HEO-6","OBJECT_ID":"2025-135BA","EPOCH":"2026-03-09T21:52:31.046880","MEAN_MOTION":14.93647104,"ECCENTRICITY":0.00022697,"INCLINATION":97.7585,"RA_OF_ASC_NODE":184.4002,"ARG_OF_PERICENTER":299.868,"MEAN_ANOMALY":60.2314,"EPHEMERIS_TYPE":0,"CLASSIFICATION_TYPE":"U","NORAD_CAT_ID":64576,"ELEMENT_SET_NO":999,"REV_AT_EPOCH":3907,"BSTAR":0.00032394524,"MEAN_MOTION_DOT":3.366e-5,"MEAN_MOTION_DDOT":0},{"OBJECT_NAME":"COSMOS 2535 DEB","OBJECT_ID":"2019-039P","EPOCH":"2026-02-22T05:58:19.108128","MEAN_MOTION":14.89509191,"ECCENTRICITY":0.00395597,"INCLINATION":97.6774,"RA_OF_ASC_NODE":55.8748,"ARG_OF_PERICENTER":30.9665,"MEAN_ANOMALY":329.3874,"EPHEMERIS_TYPE":0,"CLASSIFICATION_TYPE":"U","NORAD_CAT_ID":44712,"ELEMENT_SET_NO":999,"REV_AT_EPOCH":34537,"BSTAR":0.00038254743,"MEAN_MOTION_DOT":3.642e-5,"MEAN_MOTION_DDOT":0}]
